[{"zone": "Alikadam - Alikadam", "city": "Bandarban", "zip": "4650"}, {"zone": "Bandarban Sadar - Bandarban Sadar", "city": "Bandarban", "zip": "4600"}, {"zone": "Naikhong - Naikhong", "city": "Bandarban", "zip": "4660"}, {"zone": "Roanchhari - Roanchhari", "city": "Bandarban", "zip": "4610"}, {"zone": "Ruma - Ruma", "city": "Bandarban", "zip": "4620"}, {"zone": "Thanchi - Lama", "city": "Bandarban", "zip": "4641"}, {"zone": "Thanchi - Thanchi", "city": "Bandarban", "zip": "4630"}, {"zone": "Akhaura - Akhaura", "city": "Brahmanbaria", "zip": "3450"}, {"zone": "Akhaura - Azampur", "city": "Brahmanbaria", "zip": "3451"}, {"zone": "Akhaura - Gangasagar", "city": "Brahmanbaria", "zip": "3452"}, {"zone": "Banchharampur - Banchharampur", "city": "Brahmanbaria", "zip": "3420"}, {"zone": "Brahamanbaria Sadar - Ashuganj", "city": "Brahmanbaria", "zip": "3402"}, {"zone": "Brahamanbaria Sadar - Ashuganj Share", "city": "Brahmanbaria", "zip": "3403"}, {"zone": "Brahamanbaria Sadar - Brahamanbaria Sadar", "city": "Brahmanbaria", "zip": "3400"}, {"zone": "Brahamanbaria Sadar - Poun", "city": "Brahmanbaria", "zip": "3404"}, {"zone": "Brahamanbaria Sadar - Talshahar", "city": "Brahmanbaria", "zip": "3401"}, {"zone": "Kasba - Chandidar", "city": "Brahmanbaria", "zip": "3462"}, {"zone": "Kasba - Chargachh", "city": "Brahmanbaria", "zip": "3463"}, {"zone": "Kasba - Gopinathpur", "city": "Brahmanbaria", "zip": "3464"}, {"zone": "Kasba - Kasba", "city": "Brahmanbaria", "zip": "3460"}, {"zone": "Kasba - Kuti", "city": "Brahmanbaria", "zip": "3461"}, {"zone": "Nabinagar - Jibanganj", "city": "Brahmanbaria", "zip": "3419"}, {"zone": "Nabinagar - Kaitala", "city": "Brahmanbaria", "zip": "3417"}, {"zone": "Nabinagar - Laubfatehpur", "city": "Brahmanbaria", "zip": "3411"}, {"zone": "Nabinagar - Nabinagar", "city": "Brahmanbaria", "zip": "3410"}, {"zone": "Nabinagar - Rasullabad", "city": "Brahmanbaria", "zip": "3412"}, {"zone": "Nabinagar - Ratanpur", "city": "Brahmanbaria", "zip": "3414"}, {"zone": "Nabinagar - Salimganj", "city": "Brahmanbaria", "zip": "3418"}, {"zone": "Nabinagar - Shahapur", "city": "Brahmanbaria", "zip": "3415"}, {"zone": "Nabinagar - Shamgram", "city": "Brahmanbaria", "zip": "3413"}, {"zone": "Nasirnagar - Fandauk", "city": "Brahmanbaria", "zip": "3441"}, {"zone": "Nasirnagar - Nasirnagar", "city": "Brahmanbaria", "zip": "3440"}, {"zone": "Sarail - Chandura", "city": "Brahmanbaria", "zip": "3432"}, {"zone": "Sarail - Sarial", "city": "Brahmanbaria", "zip": "3430"}, {"zone": "Sarail - Shahbajpur", "city": "Brahmanbaria", "zip": "3431"}, {"zone": "Chandpur Sadar - Baburhat", "city": "Chandpur", "zip": "3602"}, {"zone": "Chandpur Sadar - Chandpur Sadar", "city": "Chandpur", "zip": "3600"}, {"zone": "Chandpur Sadar - Puranbazar", "city": "Chandpur", "zip": "3601"}, {"zone": "Chandpur Sadar - Sahatali", "city": "Chandpur", "zip": "3603"}, {"zone": "Faridganj - Chandra", "city": "Chandpur", "zip": "3651"}, {"zone": "Faridganj - Faridganj", "city": "Chandpur", "zip": "3650"}, {"zone": "Faridganj - Gridkaliandia", "city": "Chandpur", "zip": "3653"}, {"zone": "Faridganj - Islampur Shah Isain ", "city": "Chandpur", "zip": "3655"}, {"zone": "Faridganj - Rampurbazar", "city": "Chandpur", "zip": "3654"}, {"zone": "Faridganj - Rupsha", "city": "Chandpur", "zip": "3652"}, {"zone": "Hajiganj - Bolakhal", "city": "Chandpur", "zip": "3611"}, {"zone": "Hajiganj - Hajiganj", "city": "Chandpur", "zip": "3610"}, {"zone": "Hayemchar - Gandamara", "city": "Chandpur", "zip": "3661"}, {"zone": "Hayemchar - Hayemchar", "city": "Chandpur", "zip": "3660"}, {"zone": "Kachua - Kachua", "city": "Chandpur", "zip": "3630"}, {"zone": "Kachua - Pak Shrirampur", "city": "Chandpur", "zip": "3631"}, {"zone": "Kachua - Rahima Nagar", "city": "Chandpur", "zip": "3632"}, {"zone": "Kachua - Shachar", "city": "Chandpur", "zip": "3633"}, {"zone": "Matlobganj - Kalipur", "city": "Chandpur", "zip": "3642"}, {"zone": "Matlobganj - Matlobganj", "city": "Chandpur", "zip": "3640"}, {"zone": "Matlobganj - Mohanpur", "city": "Chandpur", "zip": "3641"}, {"zone": "Shahrasti - Chotoshi", "city": "Chandpur", "zip": "3623"}, {"zone": "Shahrasti - Islamia Madrasha", "city": "Chandpur", "zip": "3624"}, {"zone": "Shahrasti - Khilabazar", "city": "Chandpur", "zip": "3621"}, {"zone": "Shahrasti - Pashchim Kherihar Al", "city": "Chandpur", "zip": "3622"}, {"zone": "Shahrasti - Shahrasti", "city": "Chandpur", "zip": "3620"}, {"zone": "Anawara - Anowara", "city": "Chittagong", "zip": "4376"}, {"zone": "Anawara - Battali", "city": "Chittagong", "zip": "4378"}, {"zone": "Anawara - Paroikora", "city": "Chittagong", "zip": "4377"}, {"zone": "Boalkhali - Boalkhali", "city": "Chittagong", "zip": "4366"}, {"zone": "Boalkhali - Charandwip", "city": "Chittagong", "zip": "4369"}, {"zone": "Boalkhali - Iqbal Park", "city": "Chittagong", "zip": "4365"}, {"zone": "Boalkhali - Kadurkhal", "city": "Chittagong", "zip": "4368"}, {"zone": "Boalkhali - Kanungopara", "city": "Chittagong", "zip": "4363"}, {"zone": "Boalkhali - Sakpura", "city": "Chittagong", "zip": "4367"}, {"zone": "Boalkhali - Saroatoli", "city": "Chittagong", "zip": "4364"}, {"zone": "Chittagong Sadar - Al- Amin Baria Madra", "city": "Chittagong", "zip": "4221"}, {"zone": "Chittagong Sadar - Amin Jute Mills", "city": "Chittagong", "zip": "4211"}, {"zone": "Chittagong Sadar - Anandabazar", "city": "Chittagong", "zip": "4215"}, {"zone": "Chittagong Sadar - Bayezid Bostami", "city": "Chittagong", "zip": "4210"}, {"zone": "Chittagong Sadar - Chandgaon", "city": "Chittagong", "zip": "4212"}, {"zone": "Chittagong Sadar - Chawkbazar", "city": "Chittagong", "zip": "4203"}, {"zone": "Chittagong Sadar - Chitt. Cantonment", "city": "Chittagong", "zip": "4220"}, {"zone": "Chittagong Sadar - Chitt. Customs Acca", "city": "Chittagong", "zip": "4219"}, {"zone": "Chittagong Sadar - Chitt. Politechnic In", "city": "Chittagong", "zip": "4209"}, {"zone": "Chittagong Sadar - Chitt. Sailers Colon", "city": "Chittagong", "zip": "4218"}, {"zone": "Chittagong Sadar - Chittagong Airport", "city": "Chittagong", "zip": "4205"}, {"zone": "Chittagong Sadar - Chittagong Bandar", "city": "Chittagong", "zip": "4100"}, {"zone": "Chittagong Sadar - Chittagong GPO", "city": "Chittagong", "zip": "4000"}, {"zone": "Chittagong Sadar - Export Processing", "city": "Chittagong", "zip": "4223"}, {"zone": "Chittagong Sadar - Firozshah", "city": "Chittagong", "zip": "4207"}, {"zone": "Chittagong Sadar - Halishahar", "city": "Chittagong", "zip": "4216"}, {"zone": "Chittagong Sadar - Halishshar", "city": "Chittagong", "zip": "4225"}, {"zone": "Chittagong Sadar - Jalalabad", "city": "Chittagong", "zip": "4214"}, {"zone": "Chittagong Sadar - Jaldia Merine Accade", "city": "Chittagong", "zip": "4206"}, {"zone": "Chittagong Sadar - Middle Patenga", "city": "Chittagong", "zip": "4222"}, {"zone": "Chittagong Sadar - Mohard", "city": "Chittagong", "zip": "4208"}, {"zone": "Chittagong Sadar - North Halishahar", "city": "Chittagong", "zip": "4226"}, {"zone": "Chittagong Sadar - North Katuli", "city": "Chittagong", "zip": "4217"}, {"zone": "Chittagong Sadar - Pahartoli", "city": "Chittagong", "zip": "4202"}, {"zone": "Chittagong Sadar - Patenga", "city": "Chittagong", "zip": "4204"}, {"zone": "Chittagong Sadar - Rampura TSO", "city": "Chittagong", "zip": "4224"}, {"zone": "Chittagong Sadar - Wazedia", "city": "Chittagong", "zip": "4213"}, {"zone": "East Joara - Barma", "city": "Chittagong", "zip": "4383"}, {"zone": "East Joara - Dohazari", "city": "Chittagong", "zip": "4382"}, {"zone": "East Joara - East Joara", "city": "Chittagong", "zip": "4380"}, {"zone": "East Joara - Gachbaria", "city": "Chittagong", "zip": "4381"}, {"zone": "Fatikchhari - Bhandar Sharif", "city": "Chittagong", "zip": "4352"}, {"zone": "Fatikchhari - Fatikchhari", "city": "Chittagong", "zip": "4350"}, {"zone": "Fatikchhari - Harualchhari", "city": "Chittagong", "zip": "4354"}, {"zone": "Fatikchhari - Najirhat", "city": "Chittagong", "zip": "4353"}, {"zone": "Fatikchhari - Nanupur", "city": "Chittagong", "zip": "4351"}, {"zone": "Fatikchhari - Narayanhat", "city": "Chittagong", "zip": "4355"}, {"zone": "Hathazari - Chitt.University", "city": "Chittagong", "zip": "4331"}, {"zone": "Hathazari - Fatahabad", "city": "Chittagong", "zip": "4335"}, {"zone": "Hathazari - Gorduara", "city": "Chittagong", "zip": "4332"}, {"zone": "Hathazari - Hathazari", "city": "Chittagong", "zip": "4330"}, {"zone": "Hathazari - Katirhat", "city": "Chittagong", "zip": "4333"}, {"zone": "Hathazari - Madrasa", "city": "Chittagong", "zip": "4339"}, {"zone": "Hathazari - Mirzapur", "city": "Chittagong", "zip": "4334"}, {"zone": "Hathazari - Nuralibari", "city": "Chittagong", "zip": "4337"}, {"zone": "Hathazari - Yunus Nagar", "city": "Chittagong", "zip": "4338"}, {"zone": "Jaldi - Banigram", "city": "Chittagong", "zip": "4393"}, {"zone": "Jaldi - Gunagari", "city": "Chittagong", "zip": "4392"}, {"zone": "Jaldi - Jaldi", "city": "Chittagong", "zip": "4390"}, {"zone": "Jaldi - Khan Bahadur", "city": "Chittagong", "zip": "4391"}, {"zone": "Lohagara - Chunti", "city": "Chittagong", "zip": "4398"}, {"zone": "Lohagara - Lohagara", "city": "Chittagong", "zip": "4396"}, {"zone": "Lohagara - Padua", "city": "Chittagong", "zip": "4397"}, {"zone": "Mirsharai - Abutorab", "city": "Chittagong", "zip": "4321"}, {"zone": "Mirsharai - Azampur", "city": "Chittagong", "zip": "4325"}, {"zone": "Mirsharai - Bharawazhat", "city": "Chittagong", "zip": "4323"}, {"zone": "Mirsharai - Darrogahat", "city": "Chittagong", "zip": "4322"}, {"zone": "Mirsharai - Joarganj", "city": "Chittagong", "zip": "4324"}, {"zone": "Mirsharai - Korerhat", "city": "Chittagong", "zip": "4327"}, {"zone": "Mirsharai - Mirsharai", "city": "Chittagong", "zip": "4320"}, {"zone": "Mirsharai - Mohazanhat", "city": "Chittagong", "zip": "4328"}, {"zone": "Patia Head Office - Budhpara", "city": "Chittagong", "zip": "4371"}, {"zone": "Patia Head Office - Patia Head Office", "city": "Chittagong", "zip": "4370"}, {"zone": "Rangunia - Dhamair", "city": "Chittagong", "zip": "4361"}, {"zone": "Rangunia - Rangunia", "city": "Chittagong", "zip": "4360"}, {"zone": "Rouzan - B.I.T Post Office", "city": "Chittagong", "zip": "4349"}, {"zone": "Rouzan - Beenajuri", "city": "Chittagong", "zip": "4341"}, {"zone": "Rouzan - Dewanpur", "city": "Chittagong", "zip": "4347"}, {"zone": "Rouzan - Fatepur", "city": "Chittagong", "zip": "4345"}, {"zone": "Rouzan - Gahira", "city": "Chittagong", "zip": "4343"}, {"zone": "Rouzan - Guzra Noapara", "city": "Chittagong", "zip": "4346"}, {"zone": "Rouzan - jagannath Hat", "city": "Chittagong", "zip": "4344"}, {"zone": "Rouzan - Kundeshwari", "city": "Chittagong", "zip": "4342"}, {"zone": "Rouzan - Mohamuni", "city": "Chittagong", "zip": "4348"}, {"zone": "Rouzan - Rouzan", "city": "Chittagong", "zip": "4340"}, {"zone": "Sandwip - Sandwip", "city": "Chittagong", "zip": "4300"}, {"zone": "Sandwip - Shiberhat", "city": "Chittagong", "zip": "4301"}, {"zone": "Sandwip - Urirchar", "city": "Chittagong", "zip": "4302"}, {"zone": "Satkania - Baitul Ijjat", "city": "Chittagong", "zip": "4387"}, {"zone": "Satkania - Bazalia", "city": "Chittagong", "zip": "4388"}, {"zone": "Satkania - Satkania", "city": "Chittagong", "zip": "4386"}, {"zone": "Sitakunda - Barabkunda", "city": "Chittagong", "zip": "4312"}, {"zone": "Sitakunda - Baroidhala", "city": "Chittagong", "zip": "4311"}, {"zone": "Sitakunda - Bawashbaria", "city": "Chittagong", "zip": "4313"}, {"zone": "Sitakunda - Bhatiari", "city": "Chittagong", "zip": "4315"}, {"zone": "Sitakunda - Fouzdarhat", "city": "Chittagong", "zip": "4316"}, {"zone": "Sitakunda - Jafrabad", "city": "Chittagong", "zip": "4317"}, {"zone": "Sitakunda - Kumira", "city": "Chittagong", "zip": "4314"}, {"zone": "Sitakunda - Sitakunda", "city": "Chittagong", "zip": "4310"}, {"zone": "Barura - Barura", "city": "Comilla", "zip": "3560"}, {"zone": "Barura - Murdafarganj", "city": "Comilla", "zip": "3562"}, {"zone": "Barura - Poyalgachha", "city": "Comilla", "zip": "3561"}, {"zone": "Brahmanpara - Brahmanpara", "city": "Comilla", "zip": "3526"}, {"zone": "Burichang - Burichang", "city": "Comilla", "zip": "3520"}, {"zone": "Burichang - Maynamoti bazar", "city": "Comilla", "zip": "3521"}, {"zone": "Chandina - Chandia", "city": "Comilla", "zip": "3510"}, {"zone": "Chandina - Madhaiabazar", "city": "Comilla", "zip": "3511"}, {"zone": "Chouddagram - Batisa", "city": "Comilla", "zip": "3551"}, {"zone": "Chouddagram - Chiora", "city": "Comilla", "zip": "3552"}, {"zone": "Chouddagram - Chouddagram", "city": "Comilla", "zip": "3550"}, {"zone": "Comilla Sadar - Comilla Contoment", "city": "Comilla", "zip": "3501"}, {"zone": "Comilla Sadar - Comilla Sadar", "city": "Comilla", "zip": "3500"}, {"zone": "Comilla Sadar - Courtbari", "city": "Comilla", "zip": "3503"}, {"zone": "Comilla Sadar - Halimanagar", "city": "Comilla", "zip": "3502"}, {"zone": "Comilla Sadar - Suaganj", "city": "Comilla", "zip": "3504"}, {"zone": "Daudkandi - Dashpara", "city": "Comilla", "zip": "3518"}, {"zone": "Daudkandi - Daudkandi", "city": "Comilla", "zip": "3516"}, {"zone": "Daudkandi - Eliotganj", "city": "Comilla", "zip": "3519"}, {"zone": "Daudkandi - Gouripur", "city": "Comilla", "zip": "3517"}, {"zone": "Davidhar - Barashalghar", "city": "Comilla", "zip": "3532"}, {"zone": "Davidhar - Davidhar", "city": "Comilla", "zip": "3530"}, {"zone": "Davidhar - Dhamtee", "city": "Comilla", "zip": "3533"}, {"zone": "Davidhar - Gangamandal", "city": "Comilla", "zip": "3531"}, {"zone": "Homna - Homna", "city": "Comilla", "zip": "3546"}, {"zone": "Laksam - Bipulasar", "city": "Comilla", "zip": "3572"}, {"zone": "Laksam - Laksam", "city": "Comilla", "zip": "3570"}, {"zone": "Laksam - Lakshamanpur", "city": "Comilla", "zip": "3571"}, {"zone": "Langalkot - Chhariabazar", "city": "Comilla", "zip": "3582"}, {"zone": "Langalkot - Dhalua", "city": "Comilla", "zip": "3581"}, {"zone": "Langalkot - Gunabati", "city": "Comilla", "zip": "3583"}, {"zone": "Langalkot - Langalkot", "city": "Comilla", "zip": "3580"}, {"zone": "Muradnagar - Bangra", "city": "Comilla", "zip": "3543"}, {"zone": "Muradnagar - Companyganj", "city": "Comilla", "zip": "3542"}, {"zone": "Muradnagar - Muradnagar", "city": "Comilla", "zip": "3540"}, {"zone": "Muradnagar - Pantibazar", "city": "Comilla", "zip": "3545"}, {"zone": "Muradnagar - Ramchandarpur", "city": "Comilla", "zip": "3541"}, {"zone": "Muradnagar - Sonakanda", "city": "Comilla", "zip": "3544"}, {"zone": "Chiringga - Badarkali", "city": "Cox\u0092s Bazar", "zip": "4742"}, {"zone": "Chiringga - Chiringga", "city": "Cox\u0092s Bazar", "zip": "4740"}, {"zone": "Chiringga - Chiringga S.O", "city": "Cox\u0092s Bazar", "zip": "4741"}, {"zone": "Chiringga - Malumghat", "city": "Cox\u0092s Bazar", "zip": "4743"}, {"zone": "Coxs Bazar Sadar - Coxs Bazar Sadar", "city": "Cox\u0092s Bazar", "zip": "4700"}, {"zone": "Coxs Bazar Sadar - Eidga", "city": "Cox\u0092s Bazar", "zip": "4702"}, {"zone": "Coxs Bazar Sadar - Zhilanja", "city": "Cox\u0092s Bazar", "zip": "4701"}, {"zone": "Gorakghat - Gorakghat", "city": "Cox\u0092s Bazar", "zip": "4710"}, {"zone": "Kutubdia - Kutubdia", "city": "Cox\u0092s Bazar", "zip": "4720"}, {"zone": "Ramu - Ramu", "city": "Cox\u0092s Bazar", "zip": "4730"}, {"zone": "Teknaf - Hnila", "city": "Cox\u0092s Bazar", "zip": "4761"}, {"zone": "Teknaf - St.Martin", "city": "Cox\u0092s Bazar", "zip": "4762"}, {"zone": "Teknaf - Teknaf", "city": "Cox\u0092s Bazar", "zip": "4760"}, {"zone": "Ukhia - Ukhia", "city": "Cox\u0092s Bazar", "zip": "4750"}, {"zone": "Chhagalnaia - Chhagalnaia", "city": "Feni", "zip": "3910"}, {"zone": "Chhagalnaia - Daraga Hat", "city": "Feni", "zip": "3912"}, {"zone": "Chhagalnaia - Maharajganj", "city": "Feni", "zip": "3911"}, {"zone": "Chhagalnaia - Puabashimulia", "city": "Feni", "zip": "3913"}, {"zone": "Dagonbhuia - Chhilonia", "city": "Feni", "zip": "3922"}, {"zone": "Dagonbhuia - Dagondhuia", "city": "Feni", "zip": "3920"}, {"zone": "Dagonbhuia - Dudmukha", "city": "Feni", "zip": "3921"}, {"zone": "Dagonbhuia - Rajapur", "city": "Feni", "zip": "3923"}, {"zone": "Feni Sadar - Fazilpur", "city": "Feni", "zip": "3901"}, {"zone": "Feni Sadar - Feni Sadar", "city": "Feni", "zip": "3900"}, {"zone": "Feni Sadar - Laskarhat", "city": "Feni", "zip": "3903"}, {"zone": "Feni Sadar - Sharshadie", "city": "Feni", "zip": "3902"}, {"zone": "Pashurampur - Fulgazi", "city": "Feni", "zip": "3942"}, {"zone": "Pashurampur - Munshirhat", "city": "Feni", "zip": "3943"}, {"zone": "Pashurampur - Pashurampur", "city": "Feni", "zip": "3940"}, {"zone": "Pashurampur - Shuarbazar", "city": "Feni", "zip": "3941"}, {"zone": "Sonagazi - Ahmadpur", "city": "Feni", "zip": "3932"}, {"zone": "Sonagazi - Kazirhat", "city": "Feni", "zip": "3933"}, {"zone": "Sonagazi - Motiganj", "city": "Feni", "zip": "3931"}, {"zone": "Sonagazi - Sonagazi", "city": "Feni", "zip": "3930"}, {"zone": "Diginala - Diginala", "city": "Khagrachari", "zip": "4420"}, {"zone": "Khagrachari Sadar - Khagrachari Sadar", "city": "Khagrachari", "zip": "4400"}, {"zone": "Laxmichhari - Laxmichhari", "city": "Khagrachari", "zip": "4470"}, {"zone": "Mahalchhari - Mahalchhari", "city": "Khagrachari", "zip": "4430"}, {"zone": "Manikchhari - Manikchhari", "city": "Khagrachari", "zip": "4460"}, {"zone": "Matiranga - Matiranga", "city": "Khagrachari", "zip": "4450"}, {"zone": "Panchhari - Panchhari", "city": "Khagrachari", "zip": "4410"}, {"zone": "Ramghar Head Office - Ramghar Head Office", "city": "Khagrachari", "zip": "4440"}, {"zone": "Char Alexgander - Char Alexgander ", "city": "Lakshmipur", "zip": "3730"}, {"zone": "Char Alexgander - Hajirghat", "city": "Lakshmipur", "zip": "3731"}, {"zone": "Char Alexgander - Ramgatirhat", "city": "Lakshmipur", "zip": "3732"}, {"zone": "Lakshimpur Sadar - Amani Lakshimpur", "city": "Lakshmipur", "zip": "3709"}, {"zone": "Lakshimpur Sadar - Bhabaniganj", "city": "Lakshmipur", "zip": "3702"}, {"zone": "Lakshimpur Sadar - Chandraganj", "city": "Lakshmipur", "zip": "3708"}, {"zone": "Lakshimpur Sadar - Choupalli", "city": "Lakshmipur", "zip": "3707"}, {"zone": "Lakshimpur Sadar - Dalal Bazar", "city": "Lakshmipur", "zip": "3701"}, {"zone": "Lakshimpur Sadar - Duttapara", "city": "Lakshmipur", "zip": "3706"}, {"zone": "Lakshimpur Sadar - Keramatganj", "city": "Lakshmipur", "zip": "3704"}, {"zone": "Lakshimpur Sadar - Lakshimpur Sadar", "city": "Lakshmipur", "zip": "3700"}, {"zone": "Lakshimpur Sadar - Mandari", "city": "Lakshmipur", "zip": "3703"}, {"zone": "Lakshimpur Sadar - Rupchara", "city": "Lakshmipur", "zip": "3705"}, {"zone": "Ramganj - Alipur", "city": "Lakshmipur", "zip": "3721"}, {"zone": "Ramganj - Dolta", "city": "Lakshmipur", "zip": "3725"}, {"zone": "Ramganj - Kanchanpur", "city": "Lakshmipur", "zip": "3723"}, {"zone": "Ramganj - Naagmud", "city": "Lakshmipur", "zip": "3724"}, {"zone": "Ramganj - Panpara", "city": "Lakshmipur", "zip": "3722"}, {"zone": "Ramganj - Ramganj", "city": "Lakshmipur", "zip": "3720"}, {"zone": "Raypur - Bhuabari", "city": "Lakshmipur", "zip": "3714"}, {"zone": "Raypur - Haydarganj", "city": "Lakshmipur", "zip": "3713"}, {"zone": "Raypur - Nagerdighirpar", "city": "Lakshmipur", "zip": "3712"}, {"zone": "Raypur - Rakhallia", "city": "Lakshmipur", "zip": "3711"}, {"zone": "Raypur - Raypur", "city": "Lakshmipur", "zip": "3710"}, {"zone": "Basurhat - Basur Hat", "city": "Noakhali", "zip": "3850"}, {"zone": "Basurhat - Charhajari", "city": "Noakhali", "zip": "3851"}, {"zone": "Begumganj - Alaiarpur", "city": "Noakhali", "zip": "3831"}, {"zone": "Begumganj - Amisha Para", "city": "Noakhali", "zip": "3847"}, {"zone": "Begumganj - Banglabazar", "city": "Noakhali", "zip": "3822"}, {"zone": "Begumganj - Bazra", "city": "Noakhali", "zip": "3824"}, {"zone": "Begumganj - Begumganj", "city": "Noakhali", "zip": "3820"}, {"zone": "Begumganj - Bhabani Jibanpur", "city": "Noakhali", "zip": "3837"}, {"zone": "Begumganj - Choumohani", "city": "Noakhali", "zip": "3821"}, {"zone": "Begumganj - Dauti", "city": "Noakhali", "zip": "3843"}, {"zone": "Begumganj - Durgapur", "city": "Noakhali", "zip": "3848"}, {"zone": "Begumganj - Gopalpur", "city": "Noakhali", "zip": "3828"}, {"zone": "Begumganj - Jamidar Hat", "city": "Noakhali", "zip": "3825"}, {"zone": "Begumganj - Joyag", "city": "Noakhali", "zip": "3844"}, {"zone": "Begumganj - Joynarayanpur", "city": "Noakhali", "zip": "3829"}, {"zone": "Begumganj - Khalafat Bazar", "city": "Noakhali", "zip": "3833"}, {"zone": "Begumganj - Khalishpur", "city": "Noakhali", "zip": "3842"}, {"zone": "Begumganj - Maheshganj", "city": "Noakhali", "zip": "3838"}, {"zone": "Begumganj - Mir Owarishpur", "city": "Noakhali", "zip": "3823"}, {"zone": "Begumganj - Nadona", "city": "Noakhali", "zip": "3839"}, {"zone": "Begumganj - Nandiapara", "city": "Noakhali", "zip": "3841"}, {"zone": "Begumganj - Oachhekpur", "city": "Noakhali", "zip": "3835"}, {"zone": "Begumganj - Rajganj", "city": "Noakhali", "zip": "3834"}, {"zone": "Begumganj - Sonaimuri", "city": "Noakhali", "zip": "3827"}, {"zone": "Begumganj - Tangirpar", "city": "Noakhali", "zip": "3832"}, {"zone": "Begumganj - Thanar Hat", "city": "Noakhali", "zip": "3845"}, {"zone": "Chatkhil - Bansa Bazar", "city": "Noakhali", "zip": "3879"}, {"zone": "Chatkhil - Bodalcourt", "city": "Noakhali", "zip": "3873"}, {"zone": "Chatkhil - Chatkhil", "city": "Noakhali", "zip": "3870"}, {"zone": "Chatkhil - Dosh Gharia", "city": "Noakhali", "zip": "3878"}, {"zone": "Chatkhil - Karihati", "city": "Noakhali", "zip": "3877"}, {"zone": "Chatkhil - Khilpara", "city": "Noakhali", "zip": "3872"}, {"zone": "Chatkhil - Palla", "city": "Noakhali", "zip": "3871"}, {"zone": "Chatkhil - Rezzakpur", "city": "Noakhali", "zip": "3874"}, {"zone": "Chatkhil - Sahapur", "city": "Noakhali", "zip": "3881"}, {"zone": "Chatkhil - Sampara", "city": "Noakhali", "zip": "3882"}, {"zone": "Chatkhil - Shingbahura", "city": "Noakhali", "zip": "3883"}, {"zone": "Chatkhil - Solla", "city": "Noakhali", "zip": "3875"}, {"zone": "Hatiya - Afazia", "city": "Noakhali", "zip": "3891"}, {"zone": "Hatiya - Hatiya", "city": "Noakhali", "zip": "3890"}, {"zone": "Hatiya - Tamoraddi", "city": "Noakhali", "zip": "3892"}, {"zone": "Noakhali Sadar - Chaprashir Hat", "city": "Noakhali", "zip": "3811"}, {"zone": "Noakhali Sadar - Char Jabbar", "city": "Noakhali", "zip": "3812"}, {"zone": "Noakhali Sadar - Charam Tua", "city": "Noakhali", "zip": "3809"}, {"zone": "Noakhali Sadar - Din Monir Hat", "city": "Noakhali", "zip": "3803"}, {"zone": "Noakhali Sadar - Kabirhat", "city": "Noakhali", "zip": "3807"}, {"zone": "Noakhali Sadar - Khalifar Hat", "city": "Noakhali", "zip": "3808"}, {"zone": "Noakhali Sadar - Mriddarhat", "city": "Noakhali", "zip": "3806"}, {"zone": "Noakhali Sadar - Noakhali College", "city": "Noakhali", "zip": "3801"}, {"zone": "Noakhali Sadar - Noakhali Sadar", "city": "Noakhali", "zip": "3800"}, {"zone": "Noakhali Sadar - Pak Kishoreganj", "city": "Noakhali", "zip": "3804"}, {"zone": "Noakhali Sadar - Sonapur", "city": "Noakhali", "zip": "3802"}, {"zone": "Senbag - Beezbag", "city": "Noakhali", "zip": "3862"}, {"zone": "Senbag - Chatarpaia", "city": "Noakhali", "zip": "3864"}, {"zone": "Senbag - Kallyandi", "city": "Noakhali", "zip": "3861"}, {"zone": "Senbag - Kankirhat", "city": "Noakhali", "zip": "3863"}, {"zone": "Senbag - Senbag", "city": "Noakhali", "zip": "3860"}, {"zone": "Senbag - T.P. Lamua", "city": "Noakhali", "zip": "3865"}, {"zone": "Barakal - Barakal", "city": "Rangamati", "zip": "4570"}, {"zone": "Bilaichhari - Bilaichhari", "city": "Rangamati", "zip": "4550"}, {"zone": "Jarachhari - Jarachhari", "city": "Rangamati", "zip": "4560"}, {"zone": "Kalampati - Betbunia", "city": "Rangamati", "zip": "4511"}, {"zone": "Kalampati - Kalampati", "city": "Rangamati", "zip": "4510"}, {"zone": "kaptai - Chandraghona", "city": "Rangamati", "zip": "4531"}, {"zone": "kaptai - Kaptai", "city": "Rangamati", "zip": "4530"}, {"zone": "kaptai - Kaptai Nuton Bazar", "city": "Rangamati", "zip": "4533"}, {"zone": "kaptai - Kaptai Project", "city": "Rangamati", "zip": "4532"}, {"zone": "Longachh - Longachh", "city": "Rangamati", "zip": "4580"}, {"zone": "Marishya - Marishya", "city": "Rangamati", "zip": "4590"}, {"zone": "Naniachhar - Nanichhar", "city": "Rangamati", "zip": "4520"}, {"zone": "Rajsthali - Rajsthali", "city": "Rangamati", "zip": "4540"}, {"zone": "Rangamati Sadar - Rangamati Sadar", "city": "Rangamati", "zip": "4500"}]