[{"zone": "Bagerhat Sadar - Bagerhat Sadar", "city": "Bagherhat", "zip": "9300"}, {"zone": "Bagerhat Sadar - P.C College", "city": "Bagherhat", "zip": "9301"}, {"zone": "Bagerhat Sadar - Rangdia", "city": "Bagherhat", "zip": "9302"}, {"zone": "Chalna Ankorage - Chalna Ankorage", "city": "Bagherhat", "zip": "9350"}, {"zone": "Chalna Ankorage - Mongla Port", "city": "Bagherhat", "zip": "9351"}, {"zone": "Chitalmari - Barabaria", "city": "Bagherhat", "zip": "9361"}, {"zone": "Chitalmari - Chitalmari", "city": "Bagherhat", "zip": "9360"}, {"zone": "Fakirhat - Bhanganpar Bazar", "city": "Bagherhat", "zip": "9372"}, {"zone": "Fakirhat - Fakirhat", "city": "Bagherhat", "zip": "9370"}, {"zone": "Fakirhat - Mansa", "city": "Bagherhat", "zip": "9371"}, {"zone": "Kachua UPO - Kachua", "city": "Bagherhat", "zip": "9310"}, {"zone": "Kachua UPO - Sonarkola", "city": "Bagherhat", "zip": "9311"}, {"zone": "Mollahat - Charkulia", "city": "Bagherhat", "zip": "9383"}, {"zone": "Mollahat - Dariala", "city": "Bagherhat", "zip": "9382"}, {"zone": "Mollahat - Kahalpur", "city": "Bagherhat", "zip": "9381"}, {"zone": "Mollahat - Mollahat", "city": "Bagherhat", "zip": "9380"}, {"zone": "Mollahat - Nagarkandi", "city": "Bagherhat", "zip": "9384"}, {"zone": "Mollahat - Pak Gangni", "city": "Bagherhat", "zip": "9385"}, {"zone": "Morelganj - Morelganj", "city": "Bagherhat", "zip": "9320"}, {"zone": "Morelganj - Sannasi Bazar", "city": "Bagherhat", "zip": "9321"}, {"zone": "Morelganj - Telisatee", "city": "Bagherhat", "zip": "9322"}, {"zone": "Rampal - Foylahat", "city": "Bagherhat", "zip": "9341"}, {"zone": "Rampal - Gourambha", "city": "Bagherhat", "zip": "9343"}, {"zone": "Rampal - Rampal", "city": "Bagherhat", "zip": "9340"}, {"zone": "Rampal - Sonatunia", "city": "Bagherhat", "zip": "9342"}, {"zone": "Rayenda - Rayenda", "city": "Bagherhat", "zip": "9330"}, {"zone": "Alamdanga - Alamdanga", "city": "Chuadanga", "zip": "7210"}, {"zone": "Alamdanga - Hardi", "city": "Chuadanga", "zip": "7211"}, {"zone": "Chuadanga Sadar - Chuadanga Sadar", "city": "Chuadanga", "zip": "7200"}, {"zone": "Chuadanga Sadar - Munshiganj", "city": "Chuadanga", "zip": "7201"}, {"zone": "Damurhuda - Andulbaria", "city": "Chuadanga", "zip": "7222"}, {"zone": "Damurhuda - Damurhuda", "city": "Chuadanga", "zip": "7220"}, {"zone": "Damurhuda - Darshana", "city": "Chuadanga", "zip": "7221"}, {"zone": "Doulatganj - Doulatganj", "city": "Chuadanga", "zip": "7230"}, {"zone": "Bagharpara - Bagharpara", "city": "Jessore", "zip": "7470"}, {"zone": "Bagharpara - Gouranagar", "city": "Jessore", "zip": "7471"}, {"zone": "Chaugachha - Chougachha", "city": "Jessore", "zip": "7410"}, {"zone": "Jessore Sadar - Basundia", "city": "Jessore", "zip": "7406"}, {"zone": "Jessore Sadar - Chanchra", "city": "Jessore", "zip": "7402"}, {"zone": "Jessore Sadar - Churamankathi", "city": "Jessore", "zip": "7407"}, {"zone": "Jessore Sadar - Jessore Airbach", "city": "Jessore", "zip": "7404"}, {"zone": "Jessore Sadar - Jessore canttonment", "city": "Jessore", "zip": "7403"}, {"zone": "Jessore Sadar - Jessore Sadar", "city": "Jessore", "zip": "7400"}, {"zone": "Jessore Sadar - Jessore Upa-Shahar", "city": "Jessore", "zip": "7401"}, {"zone": "Jessore Sadar - Rupdia", "city": "Jessore", "zip": "7405"}, {"zone": "Jhikargachha - Jhikargachha", "city": "Jessore", "zip": "7420"}, {"zone": "Keshabpur - Keshobpur", "city": "Jessore", "zip": "7450"}, {"zone": "Monirampur - Monirampur", "city": "Jessore", "zip": "7440"}, {"zone": "Noapara - Bhugilhat", "city": "Jessore", "zip": "7462"}, {"zone": "Noapara - Noapara", "city": "Jessore", "zip": "7460"}, {"zone": "Noapara - Rajghat", "city": "Jessore", "zip": "7461"}, {"zone": "Sarsa - Bag Achra", "city": "Jessore", "zip": "7433"}, {"zone": "Sarsa - Benapole", "city": "Jessore", "zip": "7431"}, {"zone": "Sarsa - Jadabpur", "city": "Jessore", "zip": "7432"}, {"zone": "Sarsa - Sarsa", "city": "Jessore", "zip": "7430"}, {"zone": "Harinakundu - Harinakundu", "city": "Jinaidaha", "zip": "7310"}, {"zone": "Jinaidaha Sadar - Jinaidaha Cadet College", "city": "Jinaidaha", "zip": "7301"}, {"zone": "Jinaidaha Sadar - Jinaidaha Sadar", "city": "Jinaidaha", "zip": "7300"}, {"zone": "Kotchandpur - Kotchandpur", "city": "Jinaidaha", "zip": "7330"}, {"zone": "Maheshpur - Maheshpur", "city": "Jinaidaha", "zip": "7340"}, {"zone": "Naldanga - Hatbar Bazar", "city": "Jinaidaha", "zip": "7351"}, {"zone": "Naldanga - Naldanga", "city": "Jinaidaha", "zip": "7350"}, {"zone": "Shailakupa - Kumiradaha", "city": "Jinaidaha", "zip": "7321"}, {"zone": "Shailakupa - Shailakupa", "city": "Jinaidaha", "zip": "7320"}, {"zone": "Alaipur - Alaipur", "city": "Khulna", "zip": "9240"}, {"zone": "Alaipur - Belphulia", "city": "Khulna", "zip": "9242"}, {"zone": "Alaipur - Rupsha", "city": "Khulna", "zip": "9241"}, {"zone": "Batiaghat - Batiaghat", "city": "Khulna", "zip": "9260"}, {"zone": "Batiaghat - Surkalee", "city": "Khulna", "zip": "9261"}, {"zone": "Chalna Bazar - Bajua", "city": "Khulna", "zip": "9272"}, {"zone": "Chalna Bazar - Chalna Bazar", "city": "Khulna", "zip": "9270"}, {"zone": "Chalna Bazar - Dakup", "city": "Khulna", "zip": "9271"}, {"zone": "Chalna Bazar - Nalian", "city": "Khulna", "zip": "9273"}, {"zone": "Digalia - Chandni Mahal", "city": "Khulna", "zip": "9221"}, {"zone": "Digalia - Digalia", "city": "Khulna", "zip": "9220"}, {"zone": "Digalia - Gazirhat", "city": "Khulna", "zip": "9224"}, {"zone": "Digalia - Ghoshghati", "city": "Khulna", "zip": "9223"}, {"zone": "Digalia - Senhati", "city": "Khulna", "zip": "9222"}, {"zone": "Khulna Sadar - Atra Shilpa Area", "city": "Khulna", "zip": "9207"}, {"zone": "Khulna Sadar - BIT Khulna", "city": "Khulna", "zip": "9203"}, {"zone": "Khulna Sadar - Doulatpur", "city": "Khulna", "zip": "9202"}, {"zone": "Khulna Sadar - Jahanabad Canttonmen", "city": "Khulna", "zip": "9205"}, {"zone": "Khulna Sadar - Khula Sadar", "city": "Khulna", "zip": "9100"}, {"zone": "Khulna Sadar - Khulna G.P.O", "city": "Khulna", "zip": "9000"}, {"zone": "Khulna Sadar - Khulna Shipyard", "city": "Khulna", "zip": "9201"}, {"zone": "Khulna Sadar - Khulna University", "city": "Khulna", "zip": "9208"}, {"zone": "Khulna Sadar - Siramani", "city": "Khulna", "zip": "9204"}, {"zone": "Khulna Sadar - Sonali Jute Mills", "city": "Khulna", "zip": "9206"}, {"zone": "Madinabad - Amadee", "city": "Khulna", "zip": "9291"}, {"zone": "Madinabad - Madinabad", "city": "Khulna", "zip": "9290"}, {"zone": "Paikgachha - Chandkhali", "city": "Khulna", "zip": "9284"}, {"zone": "Paikgachha - Garaikhali", "city": "Khulna", "zip": "9285"}, {"zone": "Paikgachha - Godaipur", "city": "Khulna", "zip": "9281"}, {"zone": "Paikgachha - Kapilmoni", "city": "Khulna", "zip": "9282"}, {"zone": "Paikgachha - Katipara", "city": "Khulna", "zip": "9283"}, {"zone": "Paikgachha - Paikgachha", "city": "Khulna", "zip": "9280"}, {"zone": "Phultala - Phultala", "city": "Khulna", "zip": "9210"}, {"zone": "Sajiara - Chuknagar", "city": "Khulna", "zip": "9252"}, {"zone": "Sajiara - Ghonabanda", "city": "Khulna", "zip": "9251"}, {"zone": "Sajiara - Sajiara", "city": "Khulna", "zip": "9250"}, {"zone": "Sajiara - Shahapur", "city": "Khulna", "zip": "9253"}, {"zone": "Terakhada - Pak Barasat", "city": "Khulna", "zip": "9231"}, {"zone": "Terakhada - Terakhada", "city": "Khulna", "zip": "9230"}, {"zone": "Bheramara - Allardarga", "city": "Kustia", "zip": "7042"}, {"zone": "Bheramara - Bheramara", "city": "Kustia", "zip": "7040"}, {"zone": "Bheramara - Ganges Bheramara", "city": "Kustia", "zip": "7041"}, {"zone": "Janipur - Janipur", "city": "Kustia", "zip": "7020"}, {"zone": "Janipur - Khoksa", "city": "Kustia", "zip": "7021"}, {"zone": "Kumarkhali - Kumarkhali", "city": "Kustia", "zip": "7010"}, {"zone": "Kumarkhali - Panti", "city": "Kustia", "zip": "7011"}, {"zone": "Kustia Sadar - Islami University", "city": "Kustia", "zip": "7003"}, {"zone": "Kustia Sadar - Jagati", "city": "Kustia", "zip": "7002"}, {"zone": "Kustia Sadar - Kushtia Mohini", "city": "Kustia", "zip": "7001"}, {"zone": "Kustia Sadar - Kustia Sadar", "city": "Kustia", "zip": "7000"}, {"zone": "Mirpur - Amla Sadarpur", "city": "Kustia", "zip": "7032"}, {"zone": "Mirpur - Mirpur", "city": "Kustia", "zip": "7030"}, {"zone": "Mirpur - Poradaha", "city": "Kustia", "zip": "7031"}, {"zone": "Rafayetpur - Khasmathurapur", "city": "Kustia", "zip": "7052"}, {"zone": "Rafayetpur - Rafayetpur", "city": "Kustia", "zip": "7050"}, {"zone": "Rafayetpur - Taragunia", "city": "Kustia", "zip": "7051"}, {"zone": "Arpara - Arpara", "city": "Magura", "zip": "7620"}, {"zone": "Magura Sadar - Magura Sadar", "city": "Magura", "zip": "7600"}, {"zone": "Mohammadpur - Binodpur", "city": "Magura", "zip": "7631"}, {"zone": "Mohammadpur - Mohammadpur", "city": "Magura", "zip": "7630"}, {"zone": "Mohammadpur - Nahata", "city": "Magura", "zip": "7632"}, {"zone": "Shripur - Langalbadh", "city": "Magura", "zip": "7611"}, {"zone": "Shripur - Nachol", "city": "Magura", "zip": "7612"}, {"zone": "Shripur - Shripur", "city": "Magura", "zip": "7610"}, {"zone": "Gangni - Gangni", "city": "Meherpur", "zip": "7110"}, {"zone": "Meherpur Sadar - Amjhupi", "city": "Meherpur", "zip": "7101"}, {"zone": "Meherpur Sadar - Amjhupi", "city": "Meherpur", "zip": "7152"}, {"zone": "Meherpur Sadar - Meherpur Sadar", "city": "Meherpur", "zip": "7100"}, {"zone": "Meherpur Sadar - Mujib Nagar Complex", "city": "Meherpur", "zip": "7102"}, {"zone": "Kalia - Kalia", "city": "Narail", "zip": "7520"}, {"zone": "Laxmipasha - Baradia", "city": "Narail", "zip": "7514"}, {"zone": "Laxmipasha - Itna", "city": "Narail", "zip": "7512"}, {"zone": "Laxmipasha - Laxmipasha", "city": "Narail", "zip": "7510"}, {"zone": "Laxmipasha - Lohagora", "city": "Narail", "zip": "7511"}, {"zone": "Laxmipasha - Naldi", "city": "Narail", "zip": "7513"}, {"zone": "Mohajan - Mohajan", "city": "Narail", "zip": "7521"}, {"zone": "Narail Sadar - Narail Sadar", "city": "Narail", "zip": "7500"}, {"zone": "Narail Sadar - Ratanganj", "city": "Narail", "zip": "7501"}, {"zone": "Ashashuni - Ashashuni", "city": "Satkhira", "zip": "9460"}, {"zone": "Ashashuni - Baradal", "city": "Satkhira", "zip": "9461"}, {"zone": "Debbhata - Debbhata", "city": "Satkhira", "zip": "9430"}, {"zone": "Debbhata - Gurugram", "city": "Satkhira", "zip": "9431"}, {"zone": "kalaroa - Chandanpur", "city": "Satkhira", "zip": "9415"}, {"zone": "kalaroa - Hamidpur", "city": "Satkhira", "zip": "9413"}, {"zone": "kalaroa - Jhaudanga", "city": "Satkhira", "zip": "9412"}, {"zone": "kalaroa - kalaroa", "city": "Satkhira", "zip": "9410"}, {"zone": "kalaroa - Khordo", "city": "Satkhira", "zip": "9414"}, {"zone": "kalaroa - Murarikati", "city": "Satkhira", "zip": "9411"}, {"zone": "Kaliganj UPO - Kaliganj UPO", "city": "Satkhira", "zip": "9440"}, {"zone": "Kaliganj UPO - Nalta Mubaroknagar", "city": "Satkhira", "zip": "9441"}, {"zone": "Kaliganj UPO - Ratanpur ", "city": "Satkhira", "zip": "9442"}, {"zone": "Nakipur - Buri Goalini", "city": "Satkhira", "zip": "9453"}, {"zone": "Nakipur - Gabura", "city": "Satkhira", "zip": "9454"}, {"zone": "Nakipur - Habinagar", "city": "Satkhira", "zip": "9455"}, {"zone": "Nakipur - Nakipur", "city": "Satkhira", "zip": "9450"}, {"zone": "Nakipur - Naobeki", "city": "Satkhira", "zip": "9452"}, {"zone": "Nakipur - Noornagar", "city": "Satkhira", "zip": "9451"}, {"zone": "Satkhira Sadar - Budhhat", "city": "Satkhira", "zip": "9403"}, {"zone": "Satkhira Sadar - Gunakar kati", "city": "Satkhira", "zip": "9402"}, {"zone": "Satkhira Sadar - Satkhira Islamia Acc", "city": "Satkhira", "zip": "9401"}, {"zone": "Satkhira Sadar - Satkhira Sadar", "city": "Satkhira", "zip": "9400"}, {"zone": "Taala - Patkelghata", "city": "Satkhira", "zip": "9421"}, {"zone": "Taala - Taala", "city": "Satkhira", "zip": "9420"}]