[{"zone": "Alamdighi - Adamdighi", "city": "Bogra", "zip": "5890"}, {"zone": "Alamdighi - Nasharatpur", "city": "Bogra", "zip": "5892"}, {"zone": "Alamdighi - Santahar", "city": "Bogra", "zip": "5891"}, {"zone": "Bogra Sadar - Bogra Canttonment", "city": "Bogra", "zip": "5801"}, {"zone": "Bogra Sadar - Bogra Sadar", "city": "Bogra", "zip": "5800"}, {"zone": "Dhunat - Dhunat", "city": "Bogra", "zip": "5850"}, {"zone": "Dhunat - Gosaibari", "city": "Bogra", "zip": "5851"}, {"zone": "Dupchachia - Dupchachia", "city": "Bogra", "zip": "5880"}, {"zone": "Dupchachia - Talora", "city": "Bogra", "zip": "5881"}, {"zone": "Gabtoli - Gabtoli", "city": "Bogra", "zip": "5820"}, {"zone": "Gabtoli - Sukhanpukur", "city": "Bogra", "zip": "5821"}, {"zone": "Kahalu - Kahalu", "city": "Bogra", "zip": "5870"}, {"zone": "Nandigram - Nandigram", "city": "Bogra", "zip": "5860"}, {"zone": "Sariakandi - Chandan Baisha", "city": "Bogra", "zip": "5831"}, {"zone": "Sariakandi - Sariakandi", "city": "Bogra", "zip": "5830"}, {"zone": "Sherpur - Chandaikona", "city": "Bogra", "zip": "5841"}, {"zone": "Sherpur - Palli Unnyan Accadem", "city": "Bogra", "zip": "5842"}, {"zone": "Sherpur - Sherpur", "city": "Bogra", "zip": "5840"}, {"zone": "Shibganj - Shibganj", "city": "Bogra", "zip": "5810"}, {"zone": "Sonatola - Sonatola", "city": "Bogra", "zip": "5826"}, {"zone": "Bholahat - Bholahat", "city": "Chapinawabganj", "zip": "6330"}, {"zone": "Chapinawabganj Sadar - Amnura", "city": "Chapinawabganj", "zip": "6303"}, {"zone": "Chapinawabganj Sadar - Chapinawbganj Sadar", "city": "Chapinawabganj", "zip": "6300"}, {"zone": "Chapinawabganj Sadar - Rajarampur", "city": "Chapinawabganj", "zip": "6301"}, {"zone": "Chapinawabganj Sadar - Ramchandrapur", "city": "Chapinawabganj", "zip": "6302"}, {"zone": "Nachol - Mandumala", "city": "Chapinawabganj", "zip": "6311"}, {"zone": "Nachol - Nachol", "city": "Chapinawabganj", "zip": "6310"}, {"zone": "Rohanpur - Gomashtapur", "city": "Chapinawabganj", "zip": "6321"}, {"zone": "Rohanpur - Rohanpur", "city": "Chapinawabganj", "zip": "6320"}, {"zone": "Shibganj U.P.O - Kansart", "city": "Chapinawabganj", "zip": "6341"}, {"zone": "Shibganj U.P.O - Manaksha", "city": "Chapinawabganj", "zip": "6342"}, {"zone": "Shibganj U.P.O - Shibganj U.P.O", "city": "Chapinawabganj", "zip": "6340"}, {"zone": "Akkelpur - Akklepur", "city": "Joypurhat", "zip": "5940"}, {"zone": "Akkelpur - jamalganj", "city": "Joypurhat", "zip": "5941"}, {"zone": "Akkelpur - Tilakpur", "city": "Joypurhat", "zip": "5942"}, {"zone": "Joypurhat Sadar - Joypurhat Sadar", "city": "Joypurhat", "zip": "5900"}, {"zone": "kalai - kalai", "city": "Joypurhat", "zip": "5930"}, {"zone": "Khetlal - Khetlal", "city": "Joypurhat", "zip": "5920"}, {"zone": "panchbibi - Panchbibi", "city": "Joypurhat", "zip": "5910"}, {"zone": "Ahsanganj - Ahsanganj", "city": "Naogaon", "zip": "6596"}, {"zone": "Ahsanganj - Bandai", "city": "Naogaon", "zip": "6597"}, {"zone": "Badalgachhi - Badalgachhi", "city": "Naogaon", "zip": "6570"}, {"zone": "Dhamuirhat - Dhamuirhat", "city": "Naogaon", "zip": "6580"}, {"zone": "Mahadebpur - Mahadebpur", "city": "Naogaon", "zip": "6530"}, {"zone": "Naogaon Sadar - Naogaon Sadar", "city": "Naogaon", "zip": "6500"}, {"zone": "Niamatpur - Niamatpur", "city": "Naogaon", "zip": "6520"}, {"zone": "Nitpur - Nitpur", "city": "Naogaon", "zip": "6550"}, {"zone": "Nitpur - Panguria", "city": "Naogaon", "zip": "6552"}, {"zone": "Nitpur - Porsa", "city": "Naogaon", "zip": "6551"}, {"zone": "Patnitala - Patnitala", "city": "Naogaon", "zip": "6540"}, {"zone": "Prasadpur - Balihar", "city": "Naogaon", "zip": "6512"}, {"zone": "Prasadpur - Manda", "city": "Naogaon", "zip": "6511"}, {"zone": "Prasadpur - Prasadpur", "city": "Naogaon", "zip": "6510"}, {"zone": "Raninagar - Kashimpur", "city": "Naogaon", "zip": "6591"}, {"zone": "Raninagar - Raninagar", "city": "Naogaon", "zip": "6590"}, {"zone": "Sapahar - Moduhil", "city": "Naogaon", "zip": "6561"}, {"zone": "Sapahar - Sapahar", "city": "Naogaon", "zip": "6560"}, {"zone": "Gopalpur UPO - Abdulpur", "city": "Natore", "zip": "6422"}, {"zone": "Gopalpur UPO - Gopalpur U.P.O", "city": "Natore", "zip": "6420"}, {"zone": "Gopalpur UPO - Lalpur S.O", "city": "Natore", "zip": "6421"}, {"zone": "Harua - Baraigram", "city": "Natore", "zip": "6432"}, {"zone": "Harua - Dayarampur", "city": "Natore", "zip": "6431"}, {"zone": "Harua - Harua", "city": "Natore", "zip": "6430"}, {"zone": "Hatgurudaspur - Hatgurudaspur", "city": "Natore", "zip": "6440"}, {"zone": "Laxman - Laxman", "city": "Natore", "zip": "6410"}, {"zone": "Natore Sadar - Baiddyabal Gharia", "city": "Natore", "zip": "6402"}, {"zone": "Natore Sadar - Digapatia", "city": "Natore", "zip": "6401"}, {"zone": "Natore Sadar - Madhnagar", "city": "Natore", "zip": "6403"}, {"zone": "Natore Sadar - Natore Sadar", "city": "Natore", "zip": "6400"}, {"zone": "Singra - Singra", "city": "Natore", "zip": "6450"}, {"zone": "Banwarinagar - Banwarinagar", "city": "Pabna", "zip": "6650"}, {"zone": "Bera - Bera", "city": "Pabna", "zip": "6680"}, {"zone": "Bera - Kashinathpur", "city": "Pabna", "zip": "6682"}, {"zone": "Bera - Nakalia", "city": "Pabna", "zip": "6681"}, {"zone": "Bera - Puran Bharenga", "city": "Pabna", "zip": "6683"}, {"zone": "Bhangura - Bhangura", "city": "Pabna", "zip": "6640"}, {"zone": "Chatmohar - Chatmohar", "city": "Pabna", "zip": "6630"}, {"zone": "Debottar - Debottar", "city": "Pabna", "zip": "6610"}, {"zone": "Ishwardi - Dhapari", "city": "Pabna", "zip": "6621"}, {"zone": "Ishwardi - Ishwardi", "city": "Pabna", "zip": "6620"}, {"zone": "Ishwardi - Pakshi", "city": "Pabna", "zip": "6622"}, {"zone": "Ishwardi - Rajapur", "city": "Pabna", "zip": "6623"}, {"zone": "Pabna Sadar - Hamayetpur", "city": "Pabna", "zip": "6602"}, {"zone": "Pabna Sadar - Kaliko Cotton Mills", "city": "Pabna", "zip": "6601"}, {"zone": "Pabna Sadar - Pabna Sadar", "city": "Pabna", "zip": "6600"}, {"zone": "Sathia - Sathia", "city": "Pabna", "zip": "6670"}, {"zone": "Sujanagar - Sagarkandi", "city": "Pabna", "zip": "6661"}, {"zone": "Sujanagar - Sujanagar", "city": "Pabna", "zip": "6660"}, {"zone": "Bagha - Arani", "city": "Rajshahi", "zip": "6281"}, {"zone": "Bagha - Bagha", "city": "Rajshahi", "zip": "6280"}, {"zone": "Bhabaniganj - Bhabaniganj", "city": "Rajshahi", "zip": "6250"}, {"zone": "Bhabaniganj - Taharpur", "city": "Rajshahi", "zip": "6251"}, {"zone": "Charghat - Charghat", "city": "Rajshahi", "zip": "6270"}, {"zone": "Charghat - Sarda", "city": "Rajshahi", "zip": "6271"}, {"zone": "Durgapur - Durgapur", "city": "Rajshahi", "zip": "6240"}, {"zone": "Godagari - Godagari", "city": "Rajshahi", "zip": "6290"}, {"zone": "Godagari - Premtoli", "city": "Rajshahi", "zip": "6291"}, {"zone": "Khod Mohanpur - Khodmohanpur", "city": "Rajshahi", "zip": "6220"}, {"zone": "Lalitganj - Lalitganj", "city": "Rajshahi", "zip": "6210"}, {"zone": "Lalitganj - Rajshahi Sugar Mills", "city": "Rajshahi", "zip": "6211"}, {"zone": "Lalitganj - Shyampur", "city": "Rajshahi", "zip": "6212"}, {"zone": "Putia - Putia", "city": "Rajshahi", "zip": "6260"}, {"zone": "Rajshahi Sadar - Binodpur Bazar", "city": "Rajshahi", "zip": "6206"}, {"zone": "Rajshahi Sadar - Ghuramara", "city": "Rajshahi", "zip": "6100"}, {"zone": "Rajshahi Sadar - Kazla", "city": "Rajshahi", "zip": "6204"}, {"zone": "Rajshahi Sadar - Rajshahi Canttonment", "city": "Rajshahi", "zip": "6202"}, {"zone": "Rajshahi Sadar - Rajshahi Court", "city": "Rajshahi", "zip": "6201"}, {"zone": "Rajshahi Sadar - Rajshahi Sadar", "city": "Rajshahi", "zip": "6000"}, {"zone": "Rajshahi Sadar - Rajshahi University", "city": "Rajshahi", "zip": "6205"}, {"zone": "Rajshahi Sadar - Sapura", "city": "Rajshahi", "zip": "6203"}, {"zone": "Tanor - Tanor", "city": "Rajshahi", "zip": "6230"}, {"zone": "Baiddya Jam Toil - Baiddya Jam Toil", "city": "Sirajganj", "zip": "6730"}, {"zone": "Belkuchi - Belkuchi", "city": "Sirajganj", "zip": "6740"}, {"zone": "Belkuchi - Enayetpur", "city": "Sirajganj", "zip": "6751"}, {"zone": "Belkuchi - Rajapur", "city": "Sirajganj", "zip": "6742"}, {"zone": "Belkuchi - Sohagpur", "city": "Sirajganj", "zip": "6741"}, {"zone": "Belkuchi - Sthal", "city": "Sirajganj", "zip": "6752"}, {"zone": "Dhangora - Dhangora", "city": "Sirajganj", "zip": "6720"}, {"zone": "Dhangora - Malonga", "city": "Sirajganj", "zip": "6721"}, {"zone": "Kazipur - Gandail", "city": "Sirajganj", "zip": "6712"}, {"zone": "Kazipur - Kazipur", "city": "Sirajganj", "zip": "6710"}, {"zone": "Kazipur - Shuvgachha", "city": "Sirajganj", "zip": "6711"}, {"zone": "Shahjadpur - Jamirta", "city": "Sirajganj", "zip": "6772"}, {"zone": "Shahjadpur - Kaijuri", "city": "Sirajganj", "zip": "6773"}, {"zone": "Shahjadpur - Porjana", "city": "Sirajganj", "zip": "6771"}, {"zone": "Shahjadpur - Shahjadpur", "city": "Sirajganj", "zip": "6770"}, {"zone": "Sirajganj Sadar - Raipur", "city": "Sirajganj", "zip": "6701"}, {"zone": "Sirajganj Sadar - Rashidabad", "city": "Sirajganj", "zip": "6702"}, {"zone": "Sirajganj Sadar - Sirajganj Sadar", "city": "Sirajganj", "zip": "6700"}, {"zone": "Tarash - Tarash", "city": "Sirajganj", "zip": "6780"}, {"zone": "Ullapara - Lahiri Mohanpur", "city": "Sirajganj", "zip": "6762"}, {"zone": "Ullapara - Salap", "city": "Sirajganj", "zip": "6763"}, {"zone": "Ullapara - Ullapara", "city": "Sirajganj", "zip": "6760"}, {"zone": "Ullapara - Ullapara R.S", "city": "Sirajganj", "zip": "6761"}]